[{"OBJECT_NAME":"STARLINK-1845","OBJECT_ID":"2020-088P","EPOCH":"2026-03-09T20:43:16.524480","MEAN_MOTION":15.54626458,"ECCENTRICITY":0.00017329,"INCLINATION":53.0527,"RA_OF_ASC_NODE":276.5578,"ARG_OF_PERICENTER":225.3823,"MEAN_ANOMALY":134.7046,"EPHEMERIS_TYPE":0,"CLASSIFICATION_TYPE":"U","NORAD_CAT_ID":47135,"ELEMENT_SET_NO":999,"REV_AT_EPOCH":29220,"BSTAR":0.0018015678,"MEAN_MOTION_DOT":0.00122705,"MEAN_MOTION_DDOT":0},{"OBJECT_NAME":"OBJECT D","OBJECT_ID":"2022-019D","EPOCH":"2026-03-09T23:54:04.101984","MEAN_MOTION":15.5899331,"ECCENTRICITY":0.00068562,"INCLINATION":97.3688,"RA_OF_ASC_NODE":157.042,"ARG_OF_PERICENTER":142.6655,"MEAN_ANOMALY":217.5079,"EPHEMERIS_TYPE":0,"CLASSIFICATION_TYPE":"U","NORAD_CAT_ID":51827,"ELEMENT_SET_NO":999,"REV_AT_EPOCH":22419,"BSTAR":0.00075591427,"MEAN_MOTION_DOT":0.00059056,"MEAN_MOTION_DDOT":0}]
